ALOS (DAICHI)           
1 28931U 06002A   26023.84213412  .00002389  00000+0  40996-3 0  9991
2 28931  98.1154 340.0501 0002203  81.8971 278.2485 14.69644204 66892
H-2A R/B                
1 28932U 06002B   26024.12106448  .00014015  00000+0  71655-3 0  9999
2 28932  98.2347 167.3686 0053991  34.0357 326.4317 15.15500496 87686
RESURS-DK 1             
1 29228U 06021A   26024.22830820  .00004375  00000+0  25710-3 0  9997
2 29228  69.9348 352.0079 0005133 217.7596 142.3211 15.12448271 80804
CZ-4B R/B               
1 29507U 06046C   26023.94320916  .00008391  00000+0  42890-3 0  9992
2 29507  97.5676  68.9681 0035009  63.8774 296.6054 15.16380578 53267
CZ-2C R/B               
1 31114U 07010B   26024.27167919  .00000290  00000+0  15199-3 0  9992
2 31114  98.3971 139.7824 0059994  63.9485 296.7853 14.20229711973417
COSMO-SKYMED 1          
1 31598U 07023A   26024.32930576  .00006487  00000+0  58116-3 0  9995
2 31598  97.8845 215.0200 0001246  90.7049 269.4315 14.96147677  8270
COSMOS 2428             
1 31792U 07029A   26024.21671152  .00000477  00000+0  28154-3 0  9999
2 31792  70.9402 296.7002 0006257 327.5377  32.5358 14.12919194957813
SL-16 R/B               
1 31793U 07029B   26024.10188645 -.00000024  00000+0  12172-4 0  9991
2 31793  70.9739 266.1117 0001965 272.1413 194.9131 14.14822309959066
KORONAS-FOTON           
1 33504U 09003A   26024.20404890  .00016688  00000+0  38782-3 0  9997
2 33504  82.4333 322.0774 0009884 328.5889  31.4766 15.42156338938888
CZ-2C R/B               
1 37731U 11030B   26023.88170626  .00002011  00000+0  25977-3 0  9993
2 37731  97.8477 342.0728 0053736 134.9662 246.8856 14.81046142783464
H-2A R/B                
1 38341U 12025E   26023.88434531  .00005417  00000+0  49417-3 0  9992
2 38341  98.4656 347.3866 0046095  98.9532 261.6908 14.94757127741524
SHIJIAN-16 (SJ-16)      
1 39358U 13057A   26024.31371792  .00001923  00000+0  19102-3 0  9991
2 39358  74.9717 269.0903 0017700 221.3344 138.6506 14.92195447664885
