CCSDS_OMM_VERS = 2.0
CREATION_DATE  = 
ORIGINATOR     = 

OBJECT_NAME    = ALOS (DAICHI)
OBJECT_ID      = 2006-002A
CENTER_NAME    = EARTH
REF_FRAME      = TEME
TIME_SYSTEM    = UTC
MEAN_ELEMENT_THEORY = SGP/SGP4

EPOCH          = 2026-01-23T20:12:40.387968
MEAN_MOTION    = 14.69644204
ECCENTRICITY   = .00022036
INCLINATION    = 98.1154
RA_OF_ASC_NODE = 340.0501
ARG_OF_PERICENTER = 81.8971
MEAN_ANOMALY   = 278.2485

EPHEMERIS_TYPE = 0
CLASSIFICATION_TYPE = U
NORAD_CAT_ID   = 28931
ELEMENT_SET_NO = 999
REV_AT_EPOCH   = 6689
BSTAR          = .40996343E-3
MEAN_MOTION_DOT = .2389E-4
MEAN_MOTION_DDOT = 0

CCSDS_OMM_VERS = 2.0
CREATION_DATE  = 
ORIGINATOR     = 

OBJECT_NAME    = H-2A R/B
OBJECT_ID      = 2006-002B
CENTER_NAME    = EARTH
REF_FRAME      = TEME
TIME_SYSTEM    = UTC
MEAN_ELEMENT_THEORY = SGP/SGP4

EPOCH          = 2026-01-24T02:54:19.971072
MEAN_MOTION    = 15.15500496
ECCENTRICITY   = .00539918
INCLINATION    = 98.2347
RA_OF_ASC_NODE = 167.3686
ARG_OF_PERICENTER = 34.0357
MEAN_ANOMALY   = 326.4317

EPHEMERIS_TYPE = 0
CLASSIFICATION_TYPE = U
NORAD_CAT_ID   = 28932
ELEMENT_SET_NO = 999
REV_AT_EPOCH   = 8768
BSTAR          = .71655416E-3
MEAN_MOTION_DOT = .14015E-3
MEAN_MOTION_DDOT = 0

CCSDS_OMM_VERS = 2.0
CREATION_DATE  = 
ORIGINATOR     = 

OBJECT_NAME    = RESURS-DK 1
OBJECT_ID      = 2006-021A
CENTER_NAME    = EARTH
REF_FRAME      = TEME
TIME_SYSTEM    = UTC
MEAN_ELEMENT_THEORY = SGP/SGP4

EPOCH          = 2026-01-24T05:28:45.828480
MEAN_MOTION    = 15.12448271
ECCENTRICITY   = .00051338
INCLINATION    = 69.9348
RA_OF_ASC_NODE = 352.0079
ARG_OF_PERICENTER = 217.7596
MEAN_ANOMALY   = 142.3211

EPHEMERIS_TYPE = 0
CLASSIFICATION_TYPE = U
NORAD_CAT_ID   = 29228
ELEMENT_SET_NO = 999
REV_AT_EPOCH   = 8080
BSTAR          = .25709915E-3
MEAN_MOTION_DOT = .4375E-4
MEAN_MOTION_DDOT = 0

CCSDS_OMM_VERS = 2.0
CREATION_DATE  = 
ORIGINATOR     = 

OBJECT_NAME    = CZ-4B R/B
OBJECT_ID      = 2006-046C
CENTER_NAME    = EARTH
REF_FRAME      = TEME
TIME_SYSTEM    = UTC
MEAN_ELEMENT_THEORY = SGP/SGP4

EPOCH          = 2026-01-23T22:38:13.271424
MEAN_MOTION    = 15.16380578
ECCENTRICITY   = .0035009
INCLINATION    = 97.5676
RA_OF_ASC_NODE = 68.9681
ARG_OF_PERICENTER = 63.8774
MEAN_ANOMALY   = 296.6054

EPHEMERIS_TYPE = 0
CLASSIFICATION_TYPE = U
NORAD_CAT_ID   = 29507
ELEMENT_SET_NO = 999
REV_AT_EPOCH   = 5326
BSTAR          = .4289E-3
MEAN_MOTION_DOT = .8391E-4
MEAN_MOTION_DDOT = 0

CCSDS_OMM_VERS = 2.0
CREATION_DATE  = 
ORIGINATOR     = 

OBJECT_NAME    = CZ-2C R/B
OBJECT_ID      = 2007-010B
CENTER_NAME    = EARTH
REF_FRAME      = TEME
TIME_SYSTEM    = UTC
MEAN_ELEMENT_THEORY = SGP/SGP4

EPOCH          = 2026-01-24T06:31:13.082016
MEAN_MOTION    = 14.20229711
ECCENTRICITY   = .00599949
INCLINATION    = 98.3971
RA_OF_ASC_NODE = 139.7824
ARG_OF_PERICENTER = 63.9485
MEAN_ANOMALY   = 296.7853

EPHEMERIS_TYPE = 0
CLASSIFICATION_TYPE = U
NORAD_CAT_ID   = 31114
ELEMENT_SET_NO = 999
REV_AT_EPOCH   = 97341
BSTAR          = .15198824E-3
MEAN_MOTION_DOT = .29E-5
MEAN_MOTION_DDOT = 0

CCSDS_OMM_VERS = 2.0
CREATION_DATE  = 
ORIGINATOR     = 

OBJECT_NAME    = COSMO-SKYMED 1
OBJECT_ID      = 2007-023A
CENTER_NAME    = EARTH
REF_FRAME      = TEME
TIME_SYSTEM    = UTC
MEAN_ELEMENT_THEORY = SGP/SGP4

EPOCH          = 2026-01-24T07:54:12.017664
MEAN_MOTION    = 14.96147677
ECCENTRICITY   = .00012466
INCLINATION    = 97.8845
RA_OF_ASC_NODE = 215.0200
ARG_OF_PERICENTER = 90.7049
MEAN_ANOMALY   = 269.4315

EPHEMERIS_TYPE = 0
CLASSIFICATION_TYPE = U
NORAD_CAT_ID   = 31598
ELEMENT_SET_NO = 999
REV_AT_EPOCH   = 827
BSTAR          = .58116244E-3
MEAN_MOTION_DOT = .6487E-4
MEAN_MOTION_DDOT = 0

CCSDS_OMM_VERS = 2.0
CREATION_DATE  = 
ORIGINATOR     = 

OBJECT_NAME    = COSMOS 2428
OBJECT_ID      = 2007-029A
CENTER_NAME    = EARTH
REF_FRAME      = TEME
TIME_SYSTEM    = UTC
MEAN_ELEMENT_THEORY = SGP/SGP4

EPOCH          = 2026-01-24T05:12:03.875328
MEAN_MOTION    = 14.12919194
ECCENTRICITY   = .00062576
INCLINATION    = 70.9402
RA_OF_ASC_NODE = 296.7002
ARG_OF_PERICENTER = 327.5377
MEAN_ANOMALY   = 32.5358

EPHEMERIS_TYPE = 0
CLASSIFICATION_TYPE = U
NORAD_CAT_ID   = 31792
ELEMENT_SET_NO = 999
REV_AT_EPOCH   = 95781
BSTAR          = .28154389E-3
MEAN_MOTION_DOT = .477E-5
MEAN_MOTION_DDOT = 0

CCSDS_OMM_VERS = 2.0
CREATION_DATE  = 
ORIGINATOR     = 

OBJECT_NAME    = SL-16 R/B
OBJECT_ID      = 2007-029B
CENTER_NAME    = EARTH
REF_FRAME      = TEME
TIME_SYSTEM    = UTC
MEAN_ELEMENT_THEORY = SGP/SGP4

EPOCH          = 2026-01-24T02:26:42.989280
MEAN_MOTION    = 14.14822309
ECCENTRICITY   = .00019653
INCLINATION    = 70.9739
RA_OF_ASC_NODE = 266.1117
ARG_OF_PERICENTER = 272.1413
MEAN_ANOMALY   = 194.9131

EPHEMERIS_TYPE = 0
CLASSIFICATION_TYPE = U
NORAD_CAT_ID   = 31793
ELEMENT_SET_NO = 999
REV_AT_EPOCH   = 95906
BSTAR          = .1217203E-4
MEAN_MOTION_DOT = -.24E-6
MEAN_MOTION_DDOT = 0

CCSDS_OMM_VERS = 2.0
CREATION_DATE  = 
ORIGINATOR     = 

OBJECT_NAME    = KORONAS-FOTON
OBJECT_ID      = 2009-003A
CENTER_NAME    = EARTH
REF_FRAME      = TEME
TIME_SYSTEM    = UTC
MEAN_ELEMENT_THEORY = SGP/SGP4

EPOCH          = 2026-01-24T04:53:49.824960
MEAN_MOTION    = 15.42156338
ECCENTRICITY   = .00098842
INCLINATION    = 82.4333
RA_OF_ASC_NODE = 322.0774
ARG_OF_PERICENTER = 328.5889
MEAN_ANOMALY   = 31.4766

EPHEMERIS_TYPE = 0
CLASSIFICATION_TYPE = U
NORAD_CAT_ID   = 33504
ELEMENT_SET_NO = 999
REV_AT_EPOCH   = 93888
BSTAR          = .38781645E-3
MEAN_MOTION_DOT = .16688E-3
MEAN_MOTION_DDOT = 0

CCSDS_OMM_VERS = 2.0
CREATION_DATE  = 
ORIGINATOR     = 

OBJECT_NAME    = CZ-2C R/B
OBJECT_ID      = 2011-030B
CENTER_NAME    = EARTH
REF_FRAME      = TEME
TIME_SYSTEM    = UTC
MEAN_ELEMENT_THEORY = SGP/SGP4

EPOCH          = 2026-01-23T21:09:39.420864
MEAN_MOTION    = 14.81046142
ECCENTRICITY   = .00537369
INCLINATION    = 97.8477
RA_OF_ASC_NODE = 342.0728
ARG_OF_PERICENTER = 134.9662
MEAN_ANOMALY   = 246.8856

EPHEMERIS_TYPE = 0
CLASSIFICATION_TYPE = U
NORAD_CAT_ID   = 37731
ELEMENT_SET_NO = 999
REV_AT_EPOCH   = 78346
BSTAR          = .25976562E-3
MEAN_MOTION_DOT = .2011E-4
MEAN_MOTION_DDOT = 0

CCSDS_OMM_VERS = 2.0
CREATION_DATE  = 
ORIGINATOR     = 

OBJECT_NAME    = H-2A R/B
OBJECT_ID      = 2012-025E
CENTER_NAME    = EARTH
REF_FRAME      = TEME
TIME_SYSTEM    = UTC
MEAN_ELEMENT_THEORY = SGP/SGP4

EPOCH          = 2026-01-23T21:13:27.434784
MEAN_MOTION    = 14.94757127
ECCENTRICITY   = .0046095
INCLINATION    = 98.4656
RA_OF_ASC_NODE = 347.3866
ARG_OF_PERICENTER = 98.9532
MEAN_ANOMALY   = 261.6908

EPHEMERIS_TYPE = 0
CLASSIFICATION_TYPE = U
NORAD_CAT_ID   = 38341
ELEMENT_SET_NO = 999
REV_AT_EPOCH   = 74152
BSTAR          = .49417E-3
MEAN_MOTION_DOT = .5417E-4
MEAN_MOTION_DDOT = 0

CCSDS_OMM_VERS = 2.0
CREATION_DATE  = 
ORIGINATOR     = 

OBJECT_NAME    = SHIJIAN-16 (SJ-16)
OBJECT_ID      = 2013-057A
CENTER_NAME    = EARTH
REF_FRAME      = TEME
TIME_SYSTEM    = UTC
MEAN_ELEMENT_THEORY = SGP/SGP4

EPOCH          = 2026-01-24T07:31:45.228288
MEAN_MOTION    = 14.92195447
ECCENTRICITY   = .00177003
INCLINATION    = 74.9717
RA_OF_ASC_NODE = 269.0903
ARG_OF_PERICENTER = 221.3344
MEAN_ANOMALY   = 138.6506

EPHEMERIS_TYPE = 0
CLASSIFICATION_TYPE = U
NORAD_CAT_ID   = 39358
ELEMENT_SET_NO = 999
REV_AT_EPOCH   = 66488
BSTAR          = .1910209E-3
MEAN_MOTION_DOT = .1923E-4
MEAN_MOTION_DDOT = 0

